#dP2022  4  1 18  0  0.00000000      96 __u+U ITR00 EXT  IAC
## 2203 496800.00000000   900.00000000 59670 0.7500000000000
+  117   C06C07C08C09C10C11C12C13C14C16C19C20C21C22C23C24C25
+        C26C27C28C29C30C32C33C34C35C36C37C38C39C40C41C42C43
+        C44C45C46E01E02E03E04E05E07E08E09E10E11E12E13E14E15
+        E18E19E21E24E25E26E27E30E31E33E34E36G01G02G03G04G05
+        G06G07G08G09G10G11G12G13G14G15G16G17G18G19G20G21G22
+        G23G24G25G26G27G28G29G30G31G32J02J03R01R02R03R04R05
+        R07R08R09R11R12R13R14R15R17R18R19R20R21R22R24  0  0
++         8 10  9 10  9  9  8  9  9  9  8  8  9  8  9 10  9
++         8 10 10  8 10  9  9  9  8  9  9  9 11 11  8  9  9
++         9 10 11  8 10  8 10  9  8  9 10  8 10  9  8  9  9
++         9  9  9  9  8  9  9  9  9  8  9  8  8  9  9 10  8
++        10  9  9 11  9  9  9  8  8  9 10  8  9  8  9  9  8
++         8  8  9 10  8  9  9 11 10  9  9  9  9  9  9  9  7
++        11  8  9  8  9  9 10  8  8  9 10 10  9  8  9  0  0
%c M  cc GPS ccc cccc cccc cccc cccc ccccc ccccc ccccc ccccc
%c cc cc ccc ccc cccc cccc cccc cccc ccccc ccccc ccccc ccccc
%f  0.0000000  0.000000000  0.00000000000  0.000000000000000
%f  0.0000000  0.000000000  0.00000000000  0.000000000000000
%i    0    0    0    0      0      0      0      0         0
%i    0    0    0    0      0      0      0      0         0
/* IAC                                ULTRA-RAPID PREDICTION
/* S/V CLOCKS ARE ALIGNED TO GNSS TIME                      
/* G:C1WC2W R:C1PC2P E:C1XC5X C:C2IC6I J:C1CC2S             
/* PCV:IGS14_2196 OL/AL:FES2004  NONE     YN ORB:CoN CLK:CoN
*  2022 04 02  7 30  0.00000000
PC06  -1952.250813  31434.581296 -27924.365883   -280.466625
PC07 -16235.472836  27200.308560  27758.620634     58.741752
PC08 -14728.273880  39540.102896  -1902.619591    234.415479
PC09   7256.451916  36149.003392 -19627.325179   -659.170316
PC10  -6909.582930  27875.689060  31009.380225    137.439716
PC11  15276.482478  -4618.131821 -22832.928629    266.585958
PC12  20916.162552  12947.414373 -13149.192929   -631.704426
PC13  -7800.235631  40111.377739 -10802.296179    -72.364979
PC14  25517.932117  -8914.902721   7085.710712    454.252378
PC16  -3088.897315  29963.195259 -29229.120540    112.767545
PC19 -18972.528999  13571.030590 -15269.576672    881.638706
PC20 -27615.998194   3852.164789    597.396872   -864.341697
PC21  20215.462223   8814.953241 -17089.947346    -39.640602
PC22   1040.594499  15830.780461 -22948.210656   -964.402851
PC23   2986.768030 -26066.602728  -9502.282484   -936.511589
PC24  17940.320130  -4632.094039  20846.164326   -950.183522
PC25  14031.197646 -22967.194484   7325.594569   -756.995898
PC26  11384.571908  13654.109626  21505.300153    757.595131
PC27 -19400.694024 -19449.688936   4946.934026    701.439211
PC28  -7925.849446 -23867.885551 -12094.370614     50.540905
PC29  -8132.968820  14483.667243  22414.242099    535.835280
PC30 -20183.422651  -3647.252312  18927.616746    496.255284
PC32 -20208.521528  -8734.807244  17163.009799   -964.927415
PC33  18967.231043 -13698.752004  15235.788649   -971.224156
PC34  19829.302161   2623.867553 -19459.746557   -434.760317
PC35   7972.663862  23457.625743  12793.986516    209.971191
PC36 -14785.194253  22350.954734  -7773.429552   -965.281335
PC37 -10391.377560 -14937.154618 -21141.579065   -930.305103
PC38 -18025.870864  37834.577792   5276.897080    222.266425
PC39  -7765.920436  25659.900635 -32478.664946     34.940258
PC40 -22257.512496  20940.763228  28950.617341    257.419427
PC41   -547.825922 -15965.666190  22937.743712   -970.498846
PC42  27679.659937  -3299.214140  -1479.704421   -945.108686
PC43   8823.245600 -14010.342332 -22476.478889   -932.409048
PC44  20029.214496  18807.407366  -4780.459498    614.507374
PC45  -2836.246070  26000.754060   9758.369145    720.616309
PC46 -18046.913410   6335.259530 -20335.569805   -249.988275
PE01  23446.980706  -3537.985483  17707.305158   -608.470964
PE02 -23523.373650   3691.911387 -17603.476952    290.183809
PE03 -28288.805928  -5730.779167  -6535.938615   -543.708894
PE04  19058.659287  -8619.209626  20954.372331   -997.653879
PE05 -21058.965213 -16991.115181  12006.878820   -194.689629
PE07   1699.975868  18195.029608 -23276.891541   -654.457099
PE08 -18685.724021   8796.775717 -21194.966359   -505.377471
PE09  -2006.513082 -18104.360258  23336.745417   -470.122232
PE10   5890.777305 -24505.159527 -15532.964513   -504.156851
PE11   -794.736141 -28932.372610  -6267.004268   4070.955838
PE12  11525.275075 -16464.738177 -21741.348151   4683.344118
PE13    432.897527  28765.305369   6940.850793    427.736290
PE14  14624.338551 -14736.441227 -24367.707905  -1799.579204
PE15 -11502.677922  16295.861409  21871.811236    754.145736
PE18  -1547.606534  16702.844758  18021.713407  -1612.884434
PE19  28304.339166   7527.852844   4283.964264  -2328.437137
PE21  11055.811496  12456.361125  24463.499520   -726.061222
PE24   9597.750904 -22466.889778 -16711.677776   -538.529026
PE25 -10830.757648 -12647.639051 -24472.263721   -568.939637
PE26  12473.735002  23612.584509 -12757.697422   -982.675173
PE27  -8409.511518  22298.046422  17562.409108   -266.908046
PE30 -23272.379227  18297.062202   -628.389971   -397.572556
PE31  22749.844142 -18928.093374   -387.408038   -494.437212
PE33  16593.051401   5698.927233 -23833.139153   -457.997842
PE34 -16603.529092  -5452.379339  23885.953998   -509.931316
PE36 -12034.362889 -24262.665246  11966.059401   -353.861160
PG01 -13105.385028  10401.879974  20243.702389    394.552286
PG02  13940.753609  12815.861684 -17909.797668   -652.845042
PG03 -23058.852213  12888.203459   1980.201432   -189.714276
PG04 -19166.672267   3544.974011 -18071.524540   -179.170718
PG05  21446.533708  -1234.738827 -15879.419218    -76.832390
PG06   5735.316898  24776.829363  -7448.812608    252.184017
PG07  -5940.290549  23702.309116  -9379.467999    318.777941
PG08 -24254.264045  -4097.719522  10433.331438    -62.252582
PG09  -9252.392172  12481.169641 -21609.024215   -346.283139
PG10   2306.073935 -17501.057625  19898.769302   -365.823727
PG11  12849.938990  13666.412827 -18814.331352    -48.331459
PG12  24324.181635  -9103.317675   4955.841057   -194.097636
PG13  22918.511044  12903.897799   4145.731575    287.075180
PG14  -4011.905348  17968.434318  19109.238557    -99.298683
PG15  24457.950365   1028.745415  10278.850911    -72.117598
PG16 -19125.754402  -4414.861326 -18376.355746   -487.375419
PG17   7060.180685  18538.169873  18068.405185    595.078083
PG18   6444.489577 -23678.141632 -10031.318714    205.545282
PG19  13981.413318  19128.432191  11937.169266    138.990321
PG20  15328.975091   6541.891475 -20629.874964    516.022565
PG21 -15733.276124  -1681.391331  22046.304819    160.053952
PG22 -16070.487719 -18819.166664  10297.932900    236.920347
PG23  13194.823360 -19240.235063  12594.871001    -11.765715
PG24  14786.261831  -6127.446281  20851.124574    261.707912
PG25  18438.694868 -17651.841410  -7085.255834    306.512294
PG26  -9541.797924 -12543.956584 -21468.526804    195.522553
PG27 -23496.328312 -12843.239050   -562.613070    172.391967
PG28   4615.694730  14725.509533  22148.304725    374.288961
PG29  11288.545175 -10155.457358 -21848.501587   -498.406540
PG30   -459.519612  26384.105111  -1314.614107   -521.809715
PG31  -7353.209686 -23293.159935  -9961.721905   -171.622408
PG32 -10971.321797 -18368.942329  15996.115495    -96.898347
PJ02 -29311.278970  30384.662042   5380.602256     -2.409136
PJ03 -25604.083940  23256.120559  29174.821977     -1.307880
PR01  18384.996659   7824.225486 -15858.937865      7.521024
PR02  25310.564692   -341.054408   2925.256271    514.345779
PR03  16099.634778  -8051.686462  18097.301508     54.188785
PR04  -1846.001071 -10862.251416  23039.086264    134.724738
PR05 -18834.619738  -7928.894410  15297.449490     90.444760
PR07 -15589.925239   8203.829735 -18423.660250     33.375460
PR08   1993.308415  10937.877646 -22893.984328    -64.373945
PR09 -15490.314050   8128.294886 -18519.830249     47.577273
PR11  -5894.034955  21389.662424  12582.130470     42.120881
PR12   7026.173144   9302.715262  22710.407298     17.725014
PR13  15053.772124  -7111.316400  19304.653623    -20.275494
PR14  14670.059560 -20536.173982   3764.493149     76.068981
PR15   5585.988932 -21093.209967 -13197.062883     97.136490
PR17   4723.853328 -12282.316679 -21838.270831    514.280543
PR18  -6150.721821 -22338.507122 -10723.492639    112.250348
PR19 -12840.198259 -21485.212648   4930.050439   -183.813321
PR20 -13269.739707  -6201.594892  20904.322226    -67.856249
PR21  -3769.438118  13502.233173  21313.894341   -290.097151
PR22   6496.033163  22506.876388   9951.775019   -174.327913
PR24  13577.539450   4970.617205 -21000.831758     87.175525
EOF
